NORAD_CAT_ID,OBJECT_NAME,OBJECT_TYPE,EPOCH,MEAN_MOTION,ECCENTRICITY,INCLINATION,RA_OF_ASC_NODE,ARG_OF_PERICENTER,MEAN_ANOMALY,BSTAR,MEAN_MOTION_DOT,MEAN_MOTION_DDOT,TLE_LINE0,TLE_LINE1,TLE_LINE2,SEMIMAJOR_AXIS,PERIOD,APOGEE,PERIGEE,DECAYED
54198.0,STARLINK-5246,PAYLOAD,2023-08-27 20:51:56,15.08832179,0.0001492,53.2166,185.6429,95.1129,265.0034,2.518e-05,1.13e-06,0.0,0 STARLINK-5246,1 54198U 22141AT  23239.86940907  .00000113  00000-0  25180-4 0  9994,2 54198  53.2166 185.6429 0001492  95.1129 265.0034 15.08832179 46385,6917.904,95.438,540.801,538.737,0.0
54198.0,STARLINK-5246,PAYLOAD,2023-08-28 01:38:06,15.08834093,0.0001864,53.2194,184.7593,104.1272,255.9927,-4.1535e-05,-9.49e-06,0.0,0 STARLINK-5246,1 54198U 22141AT  23240.06812992 -.00000949  00000-0 -41535-4 0  9991,2 54198  53.2194 184.7593 0001864 104.1272 255.9927 15.08834093 46646,6917.898,95.438,541.053,538.474,0.0
54198.0,STARLINK-5246,PAYLOAD,2023-08-28 12:45:47,15.08840142,0.0001438,53.217,182.6705,99.1168,260.9987,3.2522e-05,2.3e-06,0.0,0 STARLINK-5246,1 54198U 22141AT  23240.53180431  .00000230  00000-0  32522-4 0  9996,2 54198  53.2170 182.6705 0001438  99.1168 260.9987 15.08840142 46718,6917.88,95.438,540.74,538.75,0.0
54198.0,STARLINK-5246,PAYLOAD,2023-08-29 04:39:39,15.08844591,0.000138,53.217,179.6971,95.1808,264.9342,9.2971e-05,1.192e-05,0.0,0 STARLINK-5246,1 54198U 22141AT  23241.19420242  .00001192  00000-0  92971-4 0  9998,2 54198  53.2170 179.6971 0001380  95.1808 264.9342 15.08844591 46588,6917.866,95.437,540.686,538.777,0.0
54198.0,STARLINK-5246,PAYLOAD,2023-08-30 01:19:41,15.08828769,0.0001486,53.2174,175.833,100.1751,259.9409,3.0635e-05,1.99e-06,0.0,0 STARLINK-5246,1 54198U 22141AT  23242.05533811  .00000199  00000-0  30635-4 0  9996,2 54198  53.2174 175.8330 0001486 100.1751 259.9409 15.08828769 46947,6917.915,95.438,540.808,538.752,0.0
54198.0,STARLINK-5246,PAYLOAD,2023-08-30 06:05:50,15.08835488,0.0001339,53.2168,174.9393,91.1026,269.0119,6.8701e-05,8.06e-06,0.0,0 STARLINK-5246,1 54198U 22141AT  23242.25405379  .00000806  00000-0  68701-4 0  9995,2 54198  53.2168 174.9393 0001339  91.1026 269.0119 15.08835488 46979,6917.894,95.438,540.685,538.833,0.0
54198.0,STARLINK-5246,PAYLOAD,2023-08-30 12:27:22,15.08834215,0.0001243,53.2162,173.7487,88.144,271.9695,1.8421e-05,5e-08,0.0,0 STARLINK-5246,1 54198U 22141AT  23242.51901568  .00000005  00000-0  18421-4 0  9990,2 54198  53.2162 173.7487 0001243  88.1440 271.9695 15.08834215 46781,6917.898,95.438,540.623,538.903,0.0
54198.0,STARLINK-5246,PAYLOAD,2023-09-01 01:01:15,15.08839699,0.000103,53.2164,166.9132,71.8887,288.2217,8.0844e-05,9.99e-06,0.0,0 STARLINK-5246,1 54198U 22141AT  23244.04253565  .00000999  00000-0  80844-4 0  9997,2 54198  53.2164 166.9132 0001030  71.8887 288.2217 15.08839699 47246,6917.881,95.438,540.459,539.034,0.0
54198.0,STARLINK-5246,PAYLOAD,2023-09-01 12:08:56,15.08838402,0.0001132,53.2167,164.83,88.7428,271.3694,0.00011576,1.555e-05,0.0,0 STARLINK-5246,1 54198U 22141AT  23244.50621207  .00001555  00000-0  11576-3 0  9994,2 54198  53.2167 164.8300 0001132  88.7428 271.3694 15.08838402 47089,6917.885,95.438,540.533,538.967,0.0
54198.0,STARLINK-5246,PAYLOAD,2023-09-01 18:30:29,15.08838971,0.0001526,53.2174,163.6395,86.3134,273.8032,0.00013546,1.868e-05,0.0,0 STARLINK-5246,1 54198U 22141AT  23244.77117543  .00001868  00000-0  13546-3 0  9992,2 54198  53.2174 163.6395 0001526  86.3134 273.8032 15.08838971 47122,6917.884,95.438,540.804,538.693,0.0
54198.0,STARLINK-5246,PAYLOAD,2023-09-02 18:21:16,15.08843858,0.0001551,53.2174,159.1791,88.4881,271.6289,4.8374e-05,4.82e-06,0.0,0 STARLINK-5246,1 54198U 22141AT  23245.76477301  .00000482  00000-0  48374-4 0  9992,2 54198  53.2174 159.1791 0001551  88.4881 271.6289 15.08843858 47504,6917.869,95.437,540.807,538.661,0.0
54198.0,STARLINK-5246,PAYLOAD,2023-09-03 03:53:35,15.08845015,0.0001577,53.2173,157.3944,88.058,272.0593,5.078e-05,5.2e-06,0.0,0 STARLINK-5246,1 54198U 22141AT  23246.16221167  .00000520  00000-0  50780-4 0  9991,2 54198  53.2173 157.3944 0001577  88.0580 272.0593 15.08845015 47334,6917.865,95.437,540.821,538.639,0.0
54198.0,STARLINK-5246,PAYLOAD,2023-09-04 00:33:36,15.08836602,0.0001415,53.2171,153.529,90.2325,269.883,-1.4967e-05,-5.26e-06,0.0,0 STARLINK-5246,1 54198U 22141AT  23247.02333907 -.00000526  00000-0 -14967-4 0  9998,2 54198  53.2171 153.5290 0001415  90.2325 269.8830 15.08836602 47696,6917.891,95.438,540.735,538.777,0.0
54198.0,STARLINK-5246,PAYLOAD,2023-09-05 00:24:23,15.08839435,0.0001387,53.2171,149.0683,89.7334,270.3817,6.5683e-05,7.58e-06,0.0,0 STARLINK-5246,1 54198U 22141AT  23248.01693677  .00000758  00000-0  65683-4 0  9997,2 54198  53.2171 149.0683 0001387  89.7334 270.3817 15.08839435 47614,6917.882,95.438,540.707,538.788,0.0
54198.0,STARLINK-5246,PAYLOAD,2023-09-06 01:50:33,15.08839023,0.0001272,53.2168,144.3105,90.1784,269.9354,7.1102e-05,8.44e-06,0.0,0 STARLINK-5246,1 54198U 22141AT  23249.07677835  .00000844  00000-0  71102-4 0  9991,2 54198  53.2168 144.3105 0001272  90.1784 269.9354 15.08839023 48002,6917.883,95.438,540.628,538.868,0.0
54198.0,STARLINK-5246,PAYLOAD,2023-09-06 03:25:56,15.08840049,0.0001268,53.2167,144.0128,89.7795,270.3343,7.9181e-05,9.73e-06,0.0,0 STARLINK-5246,1 54198U 22141AT  23249.14301789  .00000973  00000-0  79181-4 0  9999,2 54198  53.2167 144.0128 0001268  89.7795 270.3343 15.08840049 47782,6917.88,95.438,540.622,538.868,0.0
54198.0,STARLINK-5246,PAYLOAD,2023-09-07 03:16:43,15.08843679,0.000125,53.2161,139.5515,90.4006,269.7129,5.1981e-05,5.4e-06,0.0,0 STARLINK-5246,1 54198U 22141AT  23250.13661679  .00000540  00000-0  51981-4 0  9995,2 54198  53.2161 139.5515 0001250  90.4006 269.7129 15.08843679 48169,6917.869,95.437,540.599,538.869,0.0
54198.0,STARLINK-5246,PAYLOAD,2023-09-08 01:32:08,15.08836658,0.0001519,53.217,135.3881,81.8011,278.3153,2.4556e-05,1.03e-06,0.0,0 STARLINK-5246,1 54198U 22141AT  23251.06398353  .00000103  00000-0  24556-4 0  9997,2 54198  53.2170 135.3881 0001519  81.8011 278.3153 15.08836658 48305,6917.891,95.438,540.806,538.705,0.0
54198.0,STARLINK-5246,PAYLOAD,2023-09-08 22:12:08,15.08843398,0.000132,53.2162,131.5224,94.736,265.3783,5.6537e-05,6.12e-06,0.0,0 STARLINK-5246,1 54198U 22141AT  23251.92509783  .00000612  00000-0  56537-4 0  9992,2 54198  53.2162 131.5224 0001320  94.7360 265.3783 15.08843398 48208,6917.87,95.437,540.648,538.822,0.0
54198.0,STARLINK-5246,PAYLOAD,2023-09-09 01:22:54,15.08847528,0.0001358,53.2165,130.9276,92.9289,267.1858,8.9762e-05,1.141e-05,0.0,0 STARLINK-5246,1 54198U 22141AT  23252.05757414  .00001141  00000-0  89762-4 0  9997,2 54198  53.2165 130.9276 0001358  92.9289 267.1858 15.08847528 48451,6917.857,95.437,540.662,538.783,0.0
54198.0,STARLINK-5246,PAYLOAD,2023-09-09 09:19:50,15.08838695,0.0001311,53.2165,129.4412,89.6154,270.4988,1.136e-05,-1.07e-06,0.0,0 STARLINK-5246,1 54198U 22141AT  23252.38878163 -.00000107  00000-0  11360-4 0  9999,2 54198  53.2165 129.4412 0001311  89.6154 270.4988 15.08838695 48501,6917.884,95.438,540.656,538.842,0.0
54198.0,STARLINK-5246,PAYLOAD,2023-09-09 22:02:55,15.08841166,0.0001325,53.2166,127.0628,89.6242,270.4902,7.6839e-05,9.35e-06,0.0,0 STARLINK-5246,1 54198U 22141AT  23252.91869961  .00000935  00000-0  76839-4 0  9994,2 54198  53.2166 127.0628 0001325  89.6242 270.4902 15.08841166 48354,6917.877,95.437,540.658,538.825,0.0
54198.0,STARLINK-5246,PAYLOAD,2023-09-10 18:42:56,15.08843226,0.0001283,53.2165,123.1973,89.309,270.805,-2.2053e-06,-3.23e-06,0.0,0 STARLINK-5246,1 54198U 22141AT  23253.77982159 -.00000323  00000-0 -22053-5 0  9997,2 54198  53.2165 123.1973 0001283  89.3090 270.8050 15.08843226 48711,6917.871,95.437,540.623,538.848,0.0
54198.0,STARLINK-5246,PAYLOAD,2023-09-10 23:29:05,15.08845915,0.0001288,53.2168,122.305,91.2673,268.8466,1.7656e-05,-7e-08,0.0,0 STARLINK-5246,1 54198U 22141AT  23253.97853912 -.00000007  00000-0  17656-4 0  9993,2 54198  53.2168 122.3050 0001288  91.2673 268.8466 15.08845915 48518,6917.862,95.437,540.618,538.836,0.0
54198.0,STARLINK-5246,PAYLOAD,2023-09-11 23:19:52,15.08842956,0.0001269,53.2167,117.8457,87.4562,272.6575,6.7301e-05,7.83e-06,0.0,0 STARLINK-5246,1 54198U 22141AT  23254.97214080  .00000783  00000-0  67301-4 0  9993,2 54198  53.2167 117.8457 0001269  87.4562 272.6575 15.08842956 48897,6917.871,95.437,540.614,538.858,0.0
54198.0,STARLINK-5246,PAYLOAD,2023-09-12 21:35:16,15.08843292,0.0001244,53.2165,113.6814,93.4219,266.6915,8.0756e-05,9.98e-06,0.0,0 STARLINK-5246,1 54198U 22141AT  23255.89950101  .00000998  00000-0  80756-4 0  9993,2 54198  53.2165 113.6814 0001244  93.4219 266.6915 15.08843292 48801,6917.87,95.437,540.596,538.875,0.0
54198.0,STARLINK-5246,PAYLOAD,2023-09-12 23:10:39,15.08845648,0.0001256,53.2165,113.3841,86.5676,273.546,8.3456e-05,1.041e-05,0.0,0 STARLINK-5246,1 54198U 22141AT  23255.96573971  .00001041  00000-0  83456-4 0  9997,2 54198  53.2165 113.3841 0001256  86.5676 273.5460 15.08845648 48811,6917.863,95.437,540.597,538.859,0.0
54198.0,STARLINK-5246,PAYLOAD,2023-09-13 18:15:17,15.08846963,0.0001244,53.2166,109.8141,98.4888,261.6245,7.9291e-05,9.74e-06,0.0,0 STARLINK-5246,1 54198U 22141AT  23256.76061738  .00000974  00000-0  79291-4 0  9995,2 54198  53.2166 109.8141 0001244  98.4888 261.6245 15.08846963 49168,6917.859,95.437,540.585,538.864,0.0
54198.0,STARLINK-5246,PAYLOAD,2023-09-13 21:26:03,15.08851983,0.0001176,53.2164,109.2214,93.0471,267.0656,0.0001219,1.653e-05,0.0,0 STARLINK-5246,1 54198U 22141AT  23256.89309300  .00001653  00000-0  12190-3 0  9998,2 54198  53.2164 109.2214 0001176  93.0471 267.0656 15.08851983 48954,6917.844,95.437,540.522,538.895,0.0
54198.0,STARLINK-5246,PAYLOAD,2023-09-13 23:01:26,15.08852682,0.0001191,53.2161,108.9236,92.558,267.5548,0.00013367,1.841e-05,0.0,0 STARLINK-5246,1 54198U 22141AT  23256.95933191  .00001841  00000-0  13367-3 0  9992,2 54198  53.2161 108.9236 0001191  92.5580 267.5548 15.08852682 49192,6917.842,95.437,540.531,538.883,0.0
